{
    "links": {
        "self": "http://www.neowsapp.com/rest/v1/neo/3842773?api_key=iIulBulltgU6a56xZRHN4H3l9WmuAYTsLGpBGhQ2"
    },
    "id": "3842773",
    "neo_reference_id": "3842773",
    "name": "(2019 LY1)",
    "designation": "2019 LY1",
    "nasa_jpl_url": "http://ssd.jpl.nasa.gov/sbdb.cgi?sstr=3842773",
    "absolute_magnitude_h": 23.1,
    "estimated_diameter": {
        "kilometers": {
            "estimated_diameter_min": 0.063760979,
            "estimated_diameter_max": 0.1425738833
        },
        "meters": {
            "estimated_diameter_min": 63.7609789875,
            "estimated_diameter_max": 142.5738833281
        },
        "miles": {
            "estimated_diameter_min": 0.0396192233,
            "estimated_diameter_max": 0.0885912765
        },
        "feet": {
            "estimated_diameter_min": 209.1895703015,
            "estimated_diameter_max": 467.7620993781
        }
    },
    "is_potentially_hazardous_asteroid": false,
    "close_approach_data": [
        {
            "close_approach_date": "1988-06-07",
            "close_approach_date_full": "1988-Jun-07 14:56",
            "epoch_date_close_approach": 581698560000,
            "relative_velocity": {
                "kilometers_per_second": "7.9254078811",
                "kilometers_per_hour": "28531.4683719015",
                "miles_per_hour": "17728.3448891963"
            },
            "miss_distance": {
                "astronomical": "0.152718597",
                "lunar": "59.407534233",
                "kilometers": "22846376.82058839",
                "miles": "14196080.275324182"
            },
            "orbiting_body": "Earth"
        },
        {
            "close_approach_date": "2005-06-02",
            "close_approach_date_full": "2005-Jun-02 11:36",
            "epoch_date_close_approach": 1117712160000,
            "relative_velocity": {
                "kilometers_per_second": "9.2055249246",
                "kilometers_per_hour": "33139.8897286911",
                "miles_per_hour": "20591.8387039192"
            },
            "miss_distance": {
                "astronomical": "0.2792283697",
                "lunar": "108.6198358133",
                "kilometers": "41771969.350692539",
                "miles": "25955898.1635294782"
            },
            "orbiting_body": "Earth"
        },
        {
            "close_approach_date": "2019-06-15",
            "close_approach_date_full": "2019-Jun-15 20:13",
            "epoch_date_close_approach": 1560629580000,
            "relative_velocity": {
                "kilometers_per_second": "7.9632345111",
                "kilometers_per_hour": "28667.6442399996",
                "miles_per_hour": "17812.9592779042"
            },
            "miss_distance": {
                "astronomical": "0.1921870276",
                "lunar": "74.7607537364",
                "kilometers": "28750769.970591212",
                "miles": "17864900.0533022456"
            },
            "orbiting_body": "Earth"
        },
        {
            "close_approach_date": "2024-10-26",
            "close_approach_date_full": "2024-Oct-26 04:59",
            "epoch_date_close_approach": 1729918740000,
            "relative_velocity": {
                "kilometers_per_second": "6.8357196818",
                "kilometers_per_hour": "24608.5908543666",
                "miles_per_hour": "15290.8213561479"
            },
            "miss_distance": {
                "astronomical": "0.0841641555",
                "lunar": "32.7398564895",
                "kilometers": "12590778.393148785",
                "miles": "7823546.910811833"
            },
            "orbiting_body": "Mars"
        },
        {
            "close_approach_date": "2036-06-10",
            "close_approach_date_full": "2036-Jun-10 03:51",
            "epoch_date_close_approach": 2096682660000,
            "relative_velocity": {
                "kilometers_per_second": "7.6222222277",
                "kilometers_per_hour": "27440.0000198677",
                "miles_per_hour": "17050.1489012339"
            },
            "miss_distance": {
                "astronomical": "0.1223949469",
                "lunar": "47.6116343441",
                "kilometers": "18310023.355003103",
                "miles": "11377320.9394167014"
            },
            "orbiting_body": "Earth"
        }
    ],
    "orbital_data": {
        "orbit_id": "3",
        "orbit_determination_date": "2019-06-27 05:40:43",
        "first_observation_date": "2019-06-03",
        "last_observation_date": "2019-06-27",
        "data_arc_in_days": 24,
        "observations_used": 14,
        "orbit_uncertainty": "7",
        "minimum_orbit_intersection": ".122435",
        "jupiter_tisserand_invariant": "4.859",
        "epoch_osculation": "2459000.5",
        "eccentricity": ".1510844254841193",
        "semi_major_axis": "1.337956800967724",
        "inclination": "14.70371734220601",
        "ascending_node_longitude": "260.8900564280208",
        "orbital_period": "565.2773238569932",
        "perihelion_distance": "1.135812366370945",
        "perihelion_argument": "350.0238524166855",
        "aphelion_distance": "1.540101235564502",
        "perihelion_time": "2459191.831353201287",
        "mean_anomaly": "238.1495661589834",
        "mean_motion": ".6368555482531166",
        "equinox": "J2000",
        "orbit_class": {
            "orbit_class_type": "AMO",
            "orbit_class_description": "Near-Earth asteroid orbits similar to that of 1221 Amor",
            "orbit_class_range": "1.017 AU < q (perihelion) < 1.3 AU"
        }
    },
    "is_sentry_object": false
}